{
  "links" : {
    "next" : "https://api.nasa.gov/neo/rest/v1/feed?start_date=2001-04-09&end_date=2001-04-09&detailed=true&api_key=t0TVs3DtDT2H8Oy2Zy8m2eVrNsAVKAexjcZXUckd",
    "prev" : "https://api.nasa.gov/neo/rest/v1/feed?start_date=2001-04-07&end_date=2001-04-07&detailed=true&api_key=t0TVs3DtDT2H8Oy2Zy8m2eVrNsAVKAexjcZXUckd",
    "self" : "https://api.nasa.gov/neo/rest/v1/feed?start_date=2001-04-08&end_date=2001-04-08&detailed=true&api_key=t0TVs3DtDT2H8Oy2Zy8m2eVrNsAVKAexjcZXUckd"
  },
  "element_count" : 6,
  "near_earth_objects" : {
    "2001-04-08" : [ {
      "links" : {
        "self" : "https://api.nasa.gov/neo/rest/v1/neo/2005604?api_key=t0TVs3DtDT2H8Oy2Zy8m2eVrNsAVKAexjcZXUckd"
      },
      "neo_reference_id" : "2005604",
      "name" : "5604 (1992 FE)",
      "nasa_jpl_url" : "http://ssd.jpl.nasa.gov/sbdb.cgi?sstr=2005604",
      "absolute_magnitude_h" : 17.2,
      "estimated_diameter" : {
        "kilometers" : {
          "estimated_diameter_min" : 0.9650614696,
          "estimated_diameter_max" : 2.1579430484
        },
        "meters" : {
          "estimated_diameter_min" : 965.0614695789,
          "estimated_diameter_max" : 2157.9430484443
        },
        "miles" : {
          "estimated_diameter_min" : 0.5996612104,
          "estimated_diameter_max" : 1.34088323
        },
        "feet" : {
          "estimated_diameter_min" : 3166.2122718533,
          "estimated_diameter_max" : 7079.8658710581
        }
      },
      "is_potentially_hazardous_asteroid" : true,
      "close_approach_data" : [ {
        "close_approach_date" : "2001-04-08",
        "epoch_date_close_approach" : 986713200000,
        "relative_velocity" : {
          "kilometers_per_second" : "9.328061686",
          "kilometers_per_hour" : "33581.0220694956",
          "miles_per_hour" : "20865.9411853486"
        },
        "miss_distance" : {
          "astronomical" : "0.2974750582",
          "lunar" : "115.7178039551",
          "kilometers" : "44501636",
          "miles" : "27652036"
        },
        "orbiting_body" : "Earth"
      } ],
      "orbital_data" : {
        "orbit_id" : "146",
        "orbit_determination_date" : "2017-05-29 06:18:27",
        "orbit_uncertainty" : "0",
        "minimum_orbit_intersection" : ".0331798",
        "jupiter_tisserand_invariant" : "6.372",
        "epoch_osculation" : "2458000.5",
        "eccentricity" : ".4061499819246546",
        "semi_major_axis" : ".9287966941299322",
        "inclination" : "4.713586625633988",
        "ascending_node_longitude" : "311.9598155095754",
        "orbital_period" : "326.948552003355",
        "perihelion_distance" : ".5515659335973813",
        "perihelion_argument" : "82.5861756257242",
        "aphelion_distance" : "1.306027454662483",
        "perihelion_time" : "2458067.379766705882",
        "mean_anomaly" : "286.359312905382",
        "mean_motion" : "1.10109066944669",
        "equinox" : "J2000"
      }
    }, {
      "links" : {
        "self" : "https://api.nasa.gov/neo/rest/v1/neo/2434313?api_key=t0TVs3DtDT2H8Oy2Zy8m2eVrNsAVKAexjcZXUckd"
      },
      "neo_reference_id" : "2434313",
      "name" : "434313 (2004 GP)",
      "nasa_jpl_url" : "http://ssd.jpl.nasa.gov/sbdb.cgi?sstr=2434313",
      "absolute_magnitude_h" : 19.4,
      "estimated_diameter" : {
        "kilometers" : {
          "estimated_diameter_min" : 0.3503926411,
          "estimated_diameter_max" : 0.7835017643
        },
        "meters" : {
          "estimated_diameter_min" : 350.3926411083,
          "estimated_diameter_max" : 783.5017643338
        },
        "miles" : {
          "estimated_diameter_min" : 0.2177238258,
          "estimated_diameter_max" : 0.4868452748
        },
        "feet" : {
          "estimated_diameter_min" : 1149.5821926537,
          "estimated_diameter_max" : 2570.543928497
        }
      },
      "is_potentially_hazardous_asteroid" : false,
      "close_approach_data" : [ {
        "close_approach_date" : "2001-04-08",
        "epoch_date_close_approach" : 986713200000,
        "relative_velocity" : {
          "kilometers_per_second" : "24.713939905",
          "kilometers_per_hour" : "88970.1836581148",
          "miles_per_hour" : "55282.6121735659"
        },
        "miss_distance" : {
          "astronomical" : "0.4675109953",
          "lunar" : "181.8617858887",
          "kilometers" : "69938648",
          "miles" : "43457864"
        },
        "orbiting_body" : "Earth"
      } ],
      "orbital_data" : {
        "orbit_id" : "29",
        "orbit_determination_date" : "2017-04-06 09:20:50",
        "orbit_uncertainty" : "1",
        "minimum_orbit_intersection" : ".211795",
        "jupiter_tisserand_invariant" : "8.088",
        "epoch_osculation" : "2458000.5",
        "eccentricity" : ".4884624485801813",
        "semi_major_axis" : ".6965904568025297",
        "inclination" : "14.54950709298024",
        "ascending_node_longitude" : "115.6657686773224",
        "orbital_period" : "212.3560837117257",
        "perihelion_distance" : ".356332176615179",
        "perihelion_argument" : "278.6332446268254",
        "aphelion_distance" : "1.03684873698988",
        "perihelion_time" : "2457899.271529126271",
        "mean_anomaly" : "171.6091617323899",
        "mean_motion" : "1.695265771093714",
        "equinox" : "J2000"
      }
    }, {
      "links" : {
        "self" : "https://api.nasa.gov/neo/rest/v1/neo/3409646?api_key=t0TVs3DtDT2H8Oy2Zy8m2eVrNsAVKAexjcZXUckd"
      },
      "neo_reference_id" : "3409646",
      "name" : "(2008 HA2)",
      "nasa_jpl_url" : "http://ssd.jpl.nasa.gov/sbdb.cgi?sstr=3409646",
      "absolute_magnitude_h" : 24.4,
      "estimated_diameter" : {
        "kilometers" : {
          "estimated_diameter_min" : 0.0350392641,
          "estimated_diameter_max" : 0.0783501764
        },
        "meters" : {
          "estimated_diameter_min" : 35.0392641108,
          "estimated_diameter_max" : 78.3501764334
        },
        "miles" : {
          "estimated_diameter_min" : 0.0217723826,
          "estimated_diameter_max" : 0.0486845275
        },
        "feet" : {
          "estimated_diameter_min" : 114.9582192654,
          "estimated_diameter_max" : 257.0543928497
        }
      },
      "is_potentially_hazardous_asteroid" : false,
      "close_approach_data" : [ {
        "close_approach_date" : "2001-04-08",
        "epoch_date_close_approach" : 986713200000,
        "relative_velocity" : {
          "kilometers_per_second" : "8.163056725",
          "kilometers_per_hour" : "29387.0042099407",
          "miles_per_hour" : "18259.9415881157"
        },
        "miss_distance" : {
          "astronomical" : "0.1526302147",
          "lunar" : "59.3731498718",
          "kilometers" : "22833154",
          "miles" : "14187864"
        },
        "orbiting_body" : "Earth"
      } ],
      "orbital_data" : {
        "orbit_id" : "12",
        "orbit_determination_date" : "2017-04-10 11:57:30",
        "orbit_uncertainty" : "0",
        "minimum_orbit_intersection" : ".0601388",
        "jupiter_tisserand_invariant" : "4.027",
        "epoch_osculation" : "2458000.5",
        "eccentricity" : ".4018400045011861",
        "semi_major_axis" : "1.755630306147759",
        "inclination" : "1.349399349826927",
        "ascending_node_longitude" : "215.3731806997821",
        "orbital_period" : "849.6655903052291",
        "perihelion_distance" : "1.050147816022925",
        "perihelion_argument" : "314.6985624371525",
        "aphelion_distance" : "2.461112796272593",
        "perihelion_time" : "2457940.509630069557",
        "mean_anomaly" : "25.417685994794",
        "mean_motion" : ".4236961036290473",
        "equinox" : "J2000"
      }
    } ]
  }
}